IRIDIUM 63              
1 25286U 98021B   25046.48528220  .00000676  00000+0  22443-3 0  9997
2 25286  86.4016 133.1906 0002026  94.1202 266.0227 14.36378720406377
IRIDIUM 69              
1 25319U 98026A   25046.52265368  .00001089  00000+0  33466-3 0  9991
2 25319  86.4031 146.8179 0004290  80.7044 279.4641 14.40756586405545
IRIDIUM 71              
1 25320U 98026B   25046.61579304  .00000905  00000+0  27579-3 0  9995
2 25320  86.4022 141.4966 0004126 112.2776 247.8862 14.40974098406087
IRIDIUM 73              
1 25344U 98032C   25046.60035269  .00001015  00000+0  24931-3 0  9996
2 25344  86.4379  98.4758 0002821  84.1024 276.0503 14.51430601412926
IRIDIUM 82              
1 25467U 98051A   25046.59525534  .00032497  00000+0  11447-2 0  9995
2 25467  86.3763 169.1376 0099418  36.8115 323.9901 15.24476448405389
